FENGYUN 1C DEB          
1 36710U 99025EAG 17336.36865672  .00000712  00000-0  27553-3 0  9990
2 36710  98.6583  27.1434 0088215 256.3033 102.8317 14.31028700483075
